SPAWAR-CAL-R            
1 43776U 18099U   26067.65115975  .00003570  00000+0  25336-3 0  9990
2 43776  97.4524 111.5817 0019701 348.9052  11.1737 15.05212097396878
STARLINK-4150           
1 53134U 22083C   26068.60842911 -.00001686  00000+0 -87874-4 0  9994
2 53134  53.2177 174.4821 0001347 106.7574 253.3566 15.08830336201207
